O3B FM11                
1 40349U 14083B   23015.65560839 -.00000008  00000+0  00000+0 0  9996
2 40349   0.0540   0.9116 0003140 305.8409  53.2177  5.00115424147453
O3B FM12                
1 40350U 14083C   23015.68284373 -.00000008  00000+0  00000+0 0  9997
2 40350   0.0530   1.1090 0002938 294.7358  64.1240  5.00115303147460
O3B FM9                 
1 40351U 14083D   23015.70953148 -.00000008  00000+0  00000+0 0  9994
2 40351   0.0547 359.9182 0002762 297.1405  62.9122  5.00116108147616
DIAMOND RED             
1 42783U 17036U   23015.83254123  .00031017  00000+0  99909-3 0  9990
2 42783  97.1750  54.5610 0007751 297.9947  62.0511 15.32111483309403
DIAMOND GREEN           
1 42785U 17036W   23015.82688827  .00026720  00000+0  85625-3 0  9998
2 42785  97.1755  54.6361 0007562 299.4835  60.5653 15.32308460309477
DIAMOND BLUE            
1 42786U 17036X   23015.89353204  .00034001  00000+0  10899-2 0  9995
2 42786  97.1751  54.6884 0007672 300.1436  59.9046 15.32248782309482
LEO VANTAGE 1           
1 43113U 18004C   23015.87619250  .00005446  00000+0  43692-3 0  9999
2 43113  99.2412 123.7030 0396533 272.7417  82.8464 14.54921007255115
O3B FM15                
1 43231U 18024A   23015.77546676 -.00000008  00000+0  00000+0 0  9994
2 43231   0.0515   9.3486 0003072 285.5123  65.1061  5.00116241 88560
O3B FM16                
1 43232U 18024B   23015.82889952 -.00000008  00000+0  00000+0 0  9998
2 43232   0.0521  13.9066 0003080 281.6302  64.4303  5.00116056 88484
O3B FM14                
1 43233U 18024C   23015.66878576 -.00000008  00000+0  00000+0 0  9991
2 43233   0.0516  15.6333 0003048 283.3507  60.9844  5.00115472 88498
O3B FM13                
1 43234U 18024D   23014.72287354 -.00000008  00000+0  00000+0 0  9996
2 43234   0.0672   0.6980 0003871 291.1520  68.1077  5.00114995 88688
O3B FM20                
1 44112U 19020A   23015.69547050 -.00000008  00000+0  00000+0 0  9998
2 44112   0.0514   5.5840 0003422 292.2594  62.1209  5.00115505 69108
O3B FM19                
1 44113U 19020B   23015.52244853 -.00000008  00000+0  00000+0 0  9996
2 44113   0.0715  12.0241 0002845 311.9815  35.9743  5.00115126 68977
O3B FM17                
1 44114U 19020C   23015.60284881 -.00000008  00000+0  00000+0 0  9991
2 44114   0.0356  21.6441 0003188 272.4778  65.8438  5.00115733 69065
O3B FM18                
1 44115U 19020D   23015.54932912 -.00000008  00000+0  00000+0 0  9990
2 44115   0.0519   5.4351 0002956 288.3498  66.1831  5.00115874 69184
SALSAT                  
1 46495U 20068K   23015.85157536  .00009393  00000+0  65093-3 0  9994
2 46495  97.7539 322.6284 0014391 278.6873  81.2723 15.05771224126136
ISS (ZARYA)             
1 25544U 98067A   23016.09516850  .00016241  00000+0  28922-3 0  9995
2 25544  51.6456   1.8935 0004475 272.9858 175.0395 15.50262752378201
AEROCUBE 12A            
1 43556U 18046C   23015.84700831  .00072234  00000+0  11791-2 0  9992
2 43556  51.6300 220.8125 0005935 115.7184 244.4419 15.51898328252130
AEROCUBE 12B            
1 43557U 18046D   23015.89320144  .00063158  00000+0  12440-2 0  9990
2 43557  51.6330 230.0193 0006727  99.7559 260.4189 15.46601634251967
LEMUR-2-VU              
1 43558U 18046E   23015.73464747  .00506306  00000+0  21633-2 0  9993
2 43558  51.6241 182.3129 0003132 238.9354 121.1341 15.83260037252631
LEMUR-2-YUASA           
1 43560U 18046G   23015.68896760  .02240299  54426-2  20731-2 0  9994
2 43560  51.6272 176.7399 0013457 278.5974  81.3517 16.12725165252704
LEMUR-2-TOMHENDERSON    
1 43561U 18046H   23015.71491805  .00321493  00000+0  20181-2 0  9999
2 43561  51.6358 190.4863 0001325 110.4673 249.6469 15.75252100252088
ICS-EF (ISS DEB)        
1 45265U 98067RJ  23015.21491459  .00153309  00000+0  70317-3 0  9999
2 45265  51.6305 311.7503 0000170 194.9961 165.1036 15.82692707164900
ISS DEB                 
1 47853U 98067RZ  23015.22544582  .00028537  00000+0  36557-3 0  9993
2 47853  51.6399 351.8761 0002797  69.4938 290.6354 15.58940130104883
MMSATS-1                
1 47976U 98067SJ  23015.90273478  .00116454  00000+0  70523-3 0  9994
2 47976  51.6369 327.6098 0003465  83.4683 331.5172 15.76703546103549
CSS (TIANHE)            
1 48274U 21035A   23015.87820372  .00029463  00000+0  35072-3 0  9997
2 48274  41.4772   4.3319 0005442 327.9907 110.4099 15.60446920 98013
ISS (NAUKA)             
1 49044U 21066A   23015.58281632  .00015642  00000+0  27907-3 0  9997
2 49044  51.6452   4.4330 0004540 270.1442 196.5861 15.50242512378127
FREGAT DEB              
1 49271U 11037PF  23014.71703981 -.00017633  00000+0 -64315-1 0  9992
2 49271  51.5982  12.4606 0918425 120.0654 249.4475 11.98569742 72445
LIGHT-1                 
1 51509U 98067TG  23015.71790774  .11697723  12525-4  48715-3 0  9996
2 51509  51.6273 321.7852 0002442 298.0167  62.0614 16.43827378 54310
KITSUNE                 
1 52148U 98067TK  23015.87787032  .00149051  00000+0  95969-3 0  9993
2 52148  51.6339 342.3985 0004221  42.6691  49.0946 15.75186581 46447
PROGRESS-MS 20          
1 52795U 22059A   23015.58281632  .00015642  00000+0  27907-3 0  9997
2 52795  51.6452   4.4330 0004540 270.1442 196.5861 15.50242512378124
CSS (WENTIAN)           
1 53239U 22085A   23015.37816841  .00029774  00000+0  35476-3 0  9994
2 53239  41.4770   7.3730 0005412 324.4829 181.2820 15.60418611 97934
1998-067TQ              
1 53305U 98067TQ  23015.65453624  .00361913  00000+0  18573-2 0  9990
2 53305  51.6346 350.8554 0003645  67.0850 293.0536 15.79670055 27795
YUZGU 8                 
1 53306U 98067TR  23015.63306476  .00815430  29253-3  22176-2 0  9998
2 53306  51.6275 347.6567 0006287  96.1858 263.9866 15.93566144 27837
1998-067TS              
1 53307U 98067TS  23015.84705576  .00816361  28630-3  24386-2 0  9993
2 53307  51.6282 346.8273 0005693 101.2569 258.9077 15.91780399 27890
YUZGU 9 (RS3S)          
1 53308U 98067TT  23015.62351376  .00659489  18089-3  21589-2 0  9990
2 53308  51.6300 348.3529 0005781  94.9833 265.1833 15.89987642 27889
YUZGU 7 (RS1S)          
1 53309U 98067TU  23015.88246317  .00879405  34151-3  24358-2 0  9994
2 53309  51.6277 346.3107 0006043  99.6093 260.5597 15.93229700 27880
YUZGU 11 (RS5S)         
1 53310U 98067TV  23015.86871647  .00763683  24697-3  23666-2 0  9999
2 53310  51.6311 346.9908 0005349  96.4417 263.7198 15.91067935 27902
YUZGU 12 (RS6S)         
1 53311U 98067TW  23015.88445036  .01097061  58304-3  25061-2 0  9995
2 53311  51.6253 345.5575 0006197 109.9173 250.2504 15.96853812 27942
TSIOLKOVSKY-RYAZAN 1 (*)
1 53312U 98067TX  23015.83664343  .00825501  29376-3  24425-2 0  9992
2 53312  51.6286 346.7637 0005947  97.3688 262.7994 15.91962438 27866
TSIOLKOVSKY-RYAZAN 2 (*)
1 53313U 98067TY  23015.89079228  .00815055  28741-3  23658-2 0  9996
2 53313  51.6293 346.3825 0006275  99.3475 260.8241 15.92326086 27926
YUZGU 10 (RS4S)         
1 53321U 98067TZ  23015.85269875  .00765772  24889-3  23528-2 0  9995
2 53321  51.6317 346.8811 0005668  99.1378 261.0270 15.91231636 27916
YUZGU UA                
1 53322U 98067UA  23015.87311272  .00814579  29249-3  21977-2 0  9998
2 53322  51.6302 346.2546 0006063 101.9965 258.1722 15.93719214 27873
HSU-SAT1                
1 53462U 98067UB  23015.35458945  .00202848  00000+0  15619-2 0  9991
2 53462  51.6343 355.6085 0006137  27.9181 332.2145 15.70806611 24338
FUTABA                  
1 53463U 98067UC  23014.96964466  .00325082  00000+0  18425-2 0  9992
2 53463  51.6319 355.2590 0006291  43.7256 316.4242 15.77547825 24304
TUMNANOSAT              
1 53464U 98067UD  23015.63303355  .00637310  00000+0  21243-2 0  9994
2 53464  51.6302 349.1595 0006403  74.4543 285.7169 15.88082019 24441
D3                      
1 53767U 98067UE  23015.64222514  .00123159  00000+0  12418-2 0  9993
2 53767  51.6370 357.5658 0005186  44.2515 315.8894 15.64464538 20457
BEAVERCUBE              
1 53768U 98067UF  23015.65246964  .00116295  00000+0  11915-2 0  9994
2 53768  51.6379 357.6294 0003647  46.2141 313.9155 15.64094837 20462
CLICK-A                 
1 53769U 98067UG  23015.24343745  .00288150  00000+0  20839-2 0  9990
2 53769  51.6459 357.2011 0004254  54.7663 305.3733 15.72044257 20437
CAPSAT 1                
1 53770U 98067UH  23015.33196640  .00788641  00000+0  25364-2 0  9990
2 53770  51.6314 352.4265 0007196  85.1556 275.0270 15.88450782 20502
JAGSAT 1                
1 53771U 98067UJ  23015.64841449  .01188590  70901-3  25809-2 0  9992
2 53771  51.6268 349.2547 0007568 100.4981 259.6881 15.97780249 20560
ISS DEB                 
1 53772U 98067UK  23015.64593647  .00245890  00000+0  17835-2 0  9992
2 53772  51.6344 355.3122 0004364  42.6686 317.4651 15.72102662 20482
SOYUZ-MS 22             
1 53879U 22116A   23015.58281632  .00015642  00000+0  27907-3 0  9995
2 53879  51.6452   4.4330 0004540 270.1442 196.5861 15.50242512378128
CREW DRAGON 5           
1 53963U 22124A   23015.58281632  .00015642  00000+0  27907-3 0  9998
2 53963  51.6452   4.4330 0004540 270.1442 196.5861 15.50242512378122
PROGRESS-MS 21          
1 54155U 22140A   23015.58281632  .00015642  00000+0  27907-3 0  9990
2 54155  51.6452   4.4330 0004540 270.1442 196.5861 15.50242512378126
CSS (MENGTIAN)          
1 54216U 22143A   23015.37816841  .00029774  00000+0  35476-3 0  9995
2 54216  41.4770   7.3730 0005412 324.4829 181.2820 15.60418611 97930
CYGNUS NG-18            
1 54232U 22149A   23015.58281632  .00015642  00000+0  27907-3 0  9995
2 54232  51.6452   4.4330 0004540 270.1442 196.5861 15.50242512378122
TIANZHOU-5              
1 54237U 22152A   23015.37816841  .00029774  00000+0  35476-3 0  9998
2 54237  41.4770   7.3730 0005412 324.4829 181.2820 15.60418611 97933
SHENZHOU-15             
1 54379U 22162A   23015.37816841  .00029774  00000+0  35476-3 0  9996
2 54379  41.4770   7.3730 0005412 324.4829 181.2820 15.60418611 97930
